{"fetched_at":"2026-07-19T17:31:11.372Z","source":"https://celestrak.org/NORAD/elements/gp.php?GROUP=planet&FORMAT=JSON","constellation":"superdove","records":[{"OBJECT_NAME":"FLOCK 4H-16","OBJECT_ID":"2025-276BF","EPOCH":"2026-07-19T03:38:31.969824","CLASSIFICATION_TYPE":"U","MEAN_MOTION":15.20177729,"ECCENTRICITY":0.00029973,"INCLINATION":97.422,"RA_OF_ASC_NODE":273.2274,"ARG_OF_PERICENTER":235.919,"MEAN_ANOMALY":124.1761,"EPHEMERIS_TYPE":0,"NORAD_CAT_ID":66719,"ELEMENT_SET_NO":999,"REV_AT_EPOCH":3527,"BSTAR":0.00016694715,"MEAN_MOTION_DOT":0.00003546,"MEAN_MOTION_DDOT":0},{"OBJECT_NAME":"FLOCK 4H-18","OBJECT_ID":"2025-276BH","EPOCH":"2026-07-19T03:47:37.916736","CLASSIFICATION_TYPE":"U","MEAN_MOTION":15.20120524,"ECCENTRICITY":0.00022088,"INCLINATION":97.4161,"RA_OF_ASC_NODE":273.0438,"ARG_OF_PERICENTER":267.2808,"MEAN_ANOMALY":92.8174,"EPHEMERIS_TYPE":0,"NORAD_CAT_ID":66721,"ELEMENT_SET_NO":999,"REV_AT_EPOCH":3527,"BSTAR":0.00017542516,"MEAN_MOTION_DOT":0.00003723,"MEAN_MOTION_DDOT":0},{"OBJECT_NAME":"FLOCK 4H-19","OBJECT_ID":"2025-276BJ","EPOCH":"2026-07-19T03:42:07.215552","CLASSIFICATION_TYPE":"U","MEAN_MOTION":15.2130769,"ECCENTRICITY":0.00026634,"INCLINATION":97.4164,"RA_OF_ASC_NODE":273.5098,"ARG_OF_PERICENTER":141.9044,"MEAN_ANOMALY":218.238,"EPHEMERIS_TYPE":0,"NORAD_CAT_ID":66722,"ELEMENT_SET_NO":999,"REV_AT_EPOCH":3459,"BSTAR":0.00012626972,"MEAN_MOTION_DOT":0.00002756,"MEAN_MOTION_DDOT":0},{"OBJECT_NAME":"FLOCK 4H-20","OBJECT_ID":"2025-276BK","EPOCH":"2026-07-19T03:44:36.035232","CLASSIFICATION_TYPE":"U","MEAN_MOTION":15.2147284,"ECCENTRICITY":0.00032857,"INCLINATION":97.4199,"RA_OF_ASC_NODE":273.6203,"ARG_OF_PERICENTER":160.1992,"MEAN_ANOMALY":199.9372,"EPHEMERIS_TYPE":0,"NORAD_CAT_ID":66723,"ELEMENT_SET_NO":999,"REV_AT_EPOCH":3455,"BSTAR":0.00015396636,"MEAN_MOTION_DOT":0.00003392,"MEAN_MOTION_DDOT":0},{"OBJECT_NAME":"FLOCK 4H-21","OBJECT_ID":"2025-276BL","EPOCH":"2026-07-19T04:31:18.762240","CLASSIFICATION_TYPE":"U","MEAN_MOTION":15.21056058,"ECCENTRICITY":0.00030652,"INCLINATION":97.4166,"RA_OF_ASC_NODE":273.4719,"ARG_OF_PERICENTER":159.0411,"MEAN_ANOMALY":201.0951,"EPHEMERIS_TYPE":0,"NORAD_CAT_ID":66724,"ELEMENT_SET_NO":999,"REV_AT_EPOCH":3455,"BSTAR":0.00013873165,"MEAN_MOTION_DOT":0.00003012,"MEAN_MOTION_DDOT":0},{"OBJECT_NAME":"FLOCK 4H-22","OBJECT_ID":"2025-276BM","EPOCH":"2026-07-19T04:02:37.270752","CLASSIFICATION_TYPE":"U","MEAN_MOTION":15.20552775,"ECCENTRICITY":0.00010271,"INCLINATION":97.4156,"RA_OF_ASC_NODE":273.1597,"ARG_OF_PERICENTER":260.1679,"MEAN_ANOMALY":99.944,"EPHEMERIS_TYPE":0,"NORAD_CAT_ID":66725,"ELEMENT_SET_NO":999,"REV_AT_EPOCH":3528,"BSTAR":0.00016530122,"MEAN_MOTION_DOT":0.00003549,"MEAN_MOTION_DDOT":0},{"OBJECT_NAME":"FLOCK 4H-23","OBJECT_ID":"2025-276BN","EPOCH":"2026-07-19T03:46:45.557472","CLASSIFICATION_TYPE":"U","MEAN_MOTION":15.20098552,"ECCENTRICITY":0.00032843,"INCLINATION":97.4226,"RA_OF_ASC_NODE":273.2344,"ARG_OF_PERICENTER":224.853,"MEAN_ANOMALY":135.244,"EPHEMERIS_TYPE":0,"NORAD_CAT_ID":66726,"ELEMENT_SET_NO":999,"REV_AT_EPOCH":3527,"BSTAR":0.00017178832,"MEAN_MOTION_DOT":0.00003642,"MEAN_MOTION_DDOT":0},{"OBJECT_NAME":"FLOCK 4H-24","OBJECT_ID":"2025-276BP","EPOCH":"2026-07-19T04:59:13.437024","CLASSIFICATION_TYPE":"U","MEAN_MOTION":15.20209098,"ECCENTRICITY":0.00025833,"INCLINATION":97.4219,"RA_OF_ASC_NODE":273.3131,"ARG_OF_PERICENTER":243.9479,"MEAN_ANOMALY":116.1491,"EPHEMERIS_TYPE":0,"NORAD_CAT_ID":66727,"ELEMENT_SET_NO":999,"REV_AT_EPOCH":3528,"BSTAR":0.00016752582,"MEAN_MOTION_DOT":0.00003562,"MEAN_MOTION_DDOT":0},{"OBJECT_NAME":"FLOCK 4H-25","OBJECT_ID":"2025-276BQ","EPOCH":"2026-07-19T04:58:13.897056","CLASSIFICATION_TYPE":"U","MEAN_MOTION":15.20975478,"ECCENTRICITY":0.00020231,"INCLINATION":97.4176,"RA_OF_ASC_NODE":273.4818,"ARG_OF_PERICENTER":124.7608,"MEAN_ANOMALY":235.3818,"EPHEMERIS_TYPE":0,"NORAD_CAT_ID":66728,"ELEMENT_SET_NO":999,"REV_AT_EPOCH":3458,"BSTAR":0.00016423442,"MEAN_MOTION_DOT":0.0000357,"MEAN_MOTION_DDOT":0},{"OBJECT_NAME":"FLOCK 4H-26","OBJECT_ID":"2025-276BR","EPOCH":"2026-07-19T04:13:37.090272","CLASSIFICATION_TYPE":"U","MEAN_MOTION":15.19931402,"ECCENTRICITY":0.00033453,"INCLINATION":97.4176,"RA_OF_ASC_NODE":273.0597,"ARG_OF_PERICENTER":245.36,"MEAN_ANOMALY":114.7287,"EPHEMERIS_TYPE":0,"NORAD_CAT_ID":66729,"ELEMENT_SET_NO":999,"REV_AT_EPOCH":3527,"BSTAR":0.00015300671,"MEAN_MOTION_DOT":0.00003221,"MEAN_MOTION_DDOT":0},{"OBJECT_NAME":"FLOCK 4H-27","OBJECT_ID":"2025-276BS","EPOCH":"2026-07-19T04:08:14.506368","CLASSIFICATION_TYPE":"U","MEAN_MOTION":15.20797036,"ECCENTRICITY":0.0001746,"INCLINATION":97.4152,"RA_OF_ASC_NODE":273.2986,"ARG_OF_PERICENTER":125.7539,"MEAN_ANOMALY":234.3859,"EPHEMERIS_TYPE":0,"NORAD_CAT_ID":66730,"ELEMENT_SET_NO":999,"REV_AT_EPOCH":3529,"BSTAR":0.00014646552,"MEAN_MOTION_DOT":0.0000316,"MEAN_MOTION_DDOT":0},{"OBJECT_NAME":"FLOCK 4H-29","OBJECT_ID":"2025-276BU","EPOCH":"2026-07-19T03:43:36.812352","CLASSIFICATION_TYPE":"U","MEAN_MOTION":15.20071398,"ECCENTRICITY":0.00017505,"INCLINATION":97.4154,"RA_OF_ASC_NODE":273.0214,"ARG_OF_PERICENTER":256.1661,"MEAN_ANOMALY":103.938,"EPHEMERIS_TYPE":0,"NORAD_CAT_ID":66732,"ELEMENT_SET_NO":999,"REV_AT_EPOCH":3527,"BSTAR":0.0001666489,"MEAN_MOTION_DOT":0.00003528,"MEAN_MOTION_DDOT":0},{"OBJECT_NAME":"FLOCK 4H-30","OBJECT_ID":"2025-276BV","EPOCH":"2026-07-19T03:31:29.557632","CLASSIFICATION_TYPE":"U","MEAN_MOTION":15.20195509,"ECCENTRICITY":0.00028147,"INCLINATION":97.4215,"RA_OF_ASC_NODE":273.2244,"ARG_OF_PERICENTER":244.3527,"MEAN_ANOMALY":115.7418,"EPHEMERIS_TYPE":0,"NORAD_CAT_ID":66733,"ELEMENT_SET_NO":999,"REV_AT_EPOCH":3527,"BSTAR":0.00018793741,"MEAN_MOTION_DOT":0.00004002,"MEAN_MOTION_DDOT":0},{"OBJECT_NAME":"FLOCK 4H-31","OBJECT_ID":"2025-276BW","EPOCH":"2026-07-19T04:02:32.584416","CLASSIFICATION_TYPE":"U","MEAN_MOTION":15.19968004,"ECCENTRICITY":0.00021451,"INCLINATION":97.4154,"RA_OF_ASC_NODE":273.0008,"ARG_OF_PERICENTER":253.1803,"MEAN_ANOMALY":106.9197,"EPHEMERIS_TYPE":0,"NORAD_CAT_ID":66734,"ELEMENT_SET_NO":999,"REV_AT_EPOCH":3527,"BSTAR":0.00015046759,"MEAN_MOTION_DOT":0.00003169,"MEAN_MOTION_DDOT":0},{"OBJECT_NAME":"FLOCK 4H-32","OBJECT_ID":"2025-276BX","EPOCH":"2026-07-19T03:44:40.768224","CLASSIFICATION_TYPE":"U","MEAN_MOTION":15.20088439,"ECCENTRICITY":0.00032362,"INCLINATION":97.4209,"RA_OF_ASC_NODE":273.1886,"ARG_OF_PERICENTER":241.5069,"MEAN_ANOMALY":118.584,"EPHEMERIS_TYPE":0,"NORAD_CAT_ID":66735,"ELEMENT_SET_NO":999,"REV_AT_EPOCH":3527,"BSTAR":0.00016844181,"MEAN_MOTION_DOT":0.00003569,"MEAN_MOTION_DDOT":0},{"OBJECT_NAME":"FLOCK 4H-33","OBJECT_ID":"2025-276BY","EPOCH":"2026-07-19T04:14:56.980032","CLASSIFICATION_TYPE":"U","MEAN_MOTION":15.21216121,"ECCENTRICITY":0.0003039,"INCLINATION":97.4206,"RA_OF_ASC_NODE":273.6089,"ARG_OF_PERICENTER":151.867,"MEAN_ANOMALY":208.273,"EPHEMERIS_TYPE":0,"NORAD_CAT_ID":66736,"ELEMENT_SET_NO":999,"REV_AT_EPOCH":3530,"BSTAR":0.0001415752,"MEAN_MOTION_DOT":0.0000309,"MEAN_MOTION_DDOT":0}]}
