FLOCK 4H-16             
1 66719U 25276BF  26200.15175891  .00003546  00000+0  16695-3 0  9995
2 66719  97.4220 273.2274 0002997 235.9190 124.1761 15.20177729 35278
FLOCK 4H-18             
1 66721U 25276BH  26200.15807774  .00003723  00000+0  17543-3 0  9990
2 66721  97.4161 273.0438 0002208 267.2808  92.8174 15.20120524 35274
FLOCK 4H-19             
1 66722U 25276BJ  26200.15425018  .00002756  00000+0  12627-3 0  9991
2 66722  97.4164 273.5098 0002663 141.9044 218.2380 15.21307690 34599
FLOCK 4H-20             
1 66723U 25276BK  26200.15597263  .00003392  00000+0  15397-3 0  9998
2 66723  97.4199 273.6203 0003285 160.1992 199.9372 15.21472840 34555
FLOCK 4H-21             
1 66724U 25276BL  26200.18841160  .00003012  00000+0  13873-3 0  9996
2 66724  97.4166 273.4719 0003065 159.0411 201.0951 15.21056058 34556
FLOCK 4H-22             
1 66725U 25276BM  26200.16848693  .00003549  00000+0  16530-3 0  9991
2 66725  97.4156 273.1597 0001027 260.1679  99.9440 15.20552775 35287
FLOCK 4H-23             
1 66726U 25276BN  26200.15747173  .00003642  00000+0  17179-3 0  9996
2 66726  97.4226 273.2344 0003284 224.8530 135.2440 15.20098552 35278
FLOCK 4H-24             
1 66727U 25276BP  26200.20779441  .00003562  00000+0  16753-3 0  9994
2 66727  97.4219 273.3131 0002583 243.9479 116.1491 15.20209098 35285
FLOCK 4H-25             
1 66728U 25276BQ  26200.20710529  .00003570  00000+0  16423-3 0  9990
2 66728  97.4176 273.4818 0002023 124.7608 235.3818 15.20975478 34581
FLOCK 4H-26             
1 66729U 25276BR  26200.17612373  .00003221  00000+0  15301-3 0  9992
2 66729  97.4176 273.0597 0003345 245.3600 114.7287 15.19931402 35276
FLOCK 4H-27             
1 66730U 25276BS  26200.17239012  .00003160  00000+0  14647-3 0  9993
2 66730  97.4152 273.2986 0001746 125.7539 234.3859 15.20797036 35292
FLOCK 4H-29             
1 66732U 25276BU  26200.15528718  .00003528  00000+0  16665-3 0  9997
2 66732  97.4154 273.0214 0001750 256.1661 103.9380 15.20071398 35272
FLOCK 4H-30             
1 66733U 25276BV  26200.14686988  .00004002  00000+0  18794-3 0  9994
2 66733  97.4215 273.2244 0002814 244.3527 115.7418 15.20195509 35272
FLOCK 4H-31             
1 66734U 25276BW  26200.16843269  .00003169  00000+0  15047-3 0  9995
2 66734  97.4154 273.0008 0002145 253.1803 106.9197 15.19968004 35275
FLOCK 4H-32             
1 66735U 25276BX  26200.15602741  .00003569  00000+0  16844-3 0  9993
2 66735  97.4209 273.1886 0003236 241.5069 118.5840 15.20088439 35270
FLOCK 4H-33             
1 66736U 25276BY  26200.17704838  .00003090  00000+0  14158-3 0  9991
2 66736  97.4206 273.6089 0003039 151.8670 208.2730 15.21216121 35301
